KUZGTU 1 (RS47S)        
1 57217U 23091AV  26176.14424138  .00015217  00000+0  52470-3 0  9992
2 57217  97.5067 240.7054 0011992  73.4358 286.8199 15.30024033165592
SONATE-2                
1 59112U 24043Q   26176.16166257  .00047417  00000+0  60151-3 0  9995
2 59112  97.5532 327.0504 0007286 169.3652 190.7759 15.59278248129132
MESAT1                  
1 60209U 24125G   26175.14632091  .00056442  00000+0  59813-3 0  9997
2 60209  97.2288  32.7906 0010249 178.6404 181.4885 15.63886382110656
OOV-CUBE (TUBSAT-30)    
1 60240U 24128F   26176.17316428  .00001609  00000+0  13303-3 0  9991
2 60240  61.9924 197.7253 0043642 135.5486 224.9121 15.02799692107313
COLIBRI-S (RS67S)       
1 61746U 24199M   26176.14277361  .00025792  00000+0  49360-3 0  9991
2 61746  97.2989  50.0706 0006514 239.1694 120.8916 15.48023381138642
HORS 3 (RS81S)          
1 61753U 24199U   26176.19663447  .00046708  00000+0  68272-3 0  9991
2 61753  97.2973  52.1992 0004216 231.0950 128.9929 15.55487470138808
HORS 4 (RS82S)          
1 61754U 24199V   26176.19677317  .00065429  00000+0  79423-3 0  9994
2 61754  97.2918  53.4535 0004115 214.7134 145.3855 15.60387677138899
SIT-2086                
1 61764U 24199AF  26176.18460654  .00045698  00000+0  71537-3 0  9992
2 61764  97.2934  52.6356 0005535 213.6035 146.4869 15.53597855135678
HYPERVIEW 1G (RS66S)    
1 61772U 24199AP  26176.18562265  .00201716  00000+0  11676-2 0  9994
2 61772  97.2857  56.3206 0005663 190.4984 169.6166 15.78003387135938
ALTAIR (RS65S)          
1 61779U 24199AW  26176.18449284  .00014007  00000+0  38631-3 0  9992
2 61779  97.3028  45.4830 0010756 277.6974  82.3049 15.37156342138348
ASRTU-1 (AO-123)        
1 61781U 24199AY  26176.17944750  .00008831  00000+0  25546-3 0  9991
2 61781  97.2999  44.7783 0011895 281.2627  78.7280 15.35779467135156
SAMSAT-IONOSPHERE (RS7*)
1 61784U 24199BB  26176.15244148  .00057726  00000+0  75911-3 0  9994
2 61784  97.2942  52.2301 0006446 236.2523 123.8120 15.58282985138807
RTU MIREA 1 (RS51S)     
1 61785U 24199BC  26176.15882279  .00072875  00000+0  83331-3 0  9995
2 61785  97.2929  53.1105 0006388 227.4616 132.6104 15.61906223135714
TEVEL2-4                
1 63213U 25052D   26175.15869639  .00016841  00000+0  50050-3 0  9999
2 63213  97.3899  71.5621 0004948  90.1777 270.0033 15.34822563 71181
TEVEL2-5                
1 63214U 25052E   26174.98437719  .00016638  00000+0  49735-3 0  9992
2 63214  97.3894  71.3335 0004879  91.6440 268.5362 15.34639902 71150
TEVEL2-6                
1 63215U 25052F   26175.19247918  .00016897  00000+0  50551-3 0  9992
2 63215  97.3902  71.5263 0004712  91.8606 268.3176 15.34612208 71189
TEVEL2-1                
1 63217U 25052H   26174.96304379  .00015378  00000+0  46842-3 0  9994
2 63217  97.3870  70.9129 0004942 100.4498 259.7302 15.34061026 71136
TEVEL2-3                
1 63218U 25052J   26174.95743908  .00015464  00000+0  47017-3 0  9990
2 63218  97.3876  70.9298 0004852 100.9401 259.2388 15.34118051 71139
TEVEL2-2                
1 63219U 25052K   26174.96331783  .00015328  00000+0  46676-3 0  9995
2 63219  97.3875  70.9156 0004967 100.9332 259.2469 15.34070494 71130
TEVEL2-9                
1 63237U 25052AD  26175.21077817  .00014542  00000+0  47113-3 0  9993
2 63237  97.3939  70.5233 0008236 111.7825 248.4294 15.32082358 71106
TEVEL2-7                
1 63238U 25052AE  26174.66511354  .00012446  00000+0  40771-3 0  9995
2 63238  97.3941  69.8919 0008290 113.4971 246.7143 15.31764216 71016
TEVEL2-8                
1 63239U 25052AF  26176.17592529  .00019699  00000+0  64240-3 0  9991
2 63239  97.3940  71.3762 0008412 110.1773 250.0373 15.31804853 71240
INNOSAT 16 (RS92S7)     
1 64878U 25155C   26176.20139192  .00006395  00000+0  25465-3 0  9997
2 64878  97.4562 143.3035 0011483 148.7769 211.4153 15.25533190 81893
GEOSCAN 6 (RS92S6)      
1 64879U 25155D   26176.15945369  .00011450  00000+0  39281-3 0  9992
2 64879  97.4553 144.7425 0009257 138.0907 222.1044 15.30285003 81985
GEOSCAN 1 (RS92S1)      
1 64880U 25155E   26176.15877215  .00012694  00000+0  42703-3 0  9992
2 64880  97.4549 144.8967 0009207 137.9494 222.2455 15.30895034 81997
239ALFEROV (RS61S)      
1 64881U 25155F   26176.18218096  .00017050  00000+0  53388-3 0  9994
2 64881  97.4549 145.5087 0008922 135.9059 224.2896 15.33135203 82032
GEOSCAN 2 (RS92S2)      
1 64890U 25155Q   26176.15104571  .00012337  00000+0  41170-3 0  9992
2 64890  97.4548 145.0446 0008878 126.6098 233.5961 15.31164692 82000
GEOSCAN 5 (RS92S5)      
1 64891U 25155R   26176.16955397  .00016876  00000+0  52340-3 0  9997
2 64891  97.4541 145.6366 0007732 139.2489 220.9333 15.33451530 82042
GEOSCAN 4 (RS92S4)      
1 64892U 25155S   26176.15293683  .00016063  00000+0  49593-3 0  9994
2 64892  97.4545 145.6705 0007797 138.8408 221.3424 15.33607419 82046
GEOSCAN 3 (RS92S3)      
1 64893U 25155T   26176.20846580  .00021585  00000+0  62368-3 0  9991
2 64893  97.4533 146.1796 0007770 137.6700 222.5144 15.35639239 82086
