OBJECT_NAME,OBJECT_ID,EPOCH,MEAN_MOTION,ECCENTRICITY,INCLINATION,RA_OF_ASC_NODE,ARG_OF_PERICENTER,MEAN_ANOMALY,EPHEMERIS_TYPE,CLASSIFICATION_TYPE,NORAD_CAT_ID,ELEMENT_SET_NO,REV_AT_EPOCH,BSTAR,MEAN_MOTION_DOT,MEAN_MOTION_DDOT
KUZGTU 1 (RS47S),2023-091AV,2026-06-25T03:27:42.455232,15.30024033,.0011992,97.5067,240.7054,73.4358,286.8199,0,U,57217,999,16559,.5247E-3,.15217E-3,0
SONATE-2,2024-043Q,2026-06-25T03:52:47.646048,15.59278248,.0007286,97.5532,327.0504,169.3652,190.7759,0,U,59112,999,12913,.60151E-3,.47417E-3,0
MESAT1,2024-125G,2026-06-24T03:30:42.126624,15.63886382,.00102494,97.2288,32.7906,178.6404,181.4885,0,U,60209,999,11065,.59812847E-3,.56442E-3,0
OOV-CUBE (TUBSAT-30),2024-128F,2026-06-25T04:09:21.393792,15.02799692,.0043642,61.9924,197.7253,135.5486,224.9121,0,U,60240,999,10731,.13303E-3,.1609E-4,0
COLIBRI-S (RS67S),2024-199M,2026-06-25T03:25:35.639904,15.48023381,.0006514,97.2989,50.0706,239.1694,120.8916,0,U,61746,999,13864,.4936E-3,.25792E-3,0
HORS 3 (RS81S),2024-199U,2026-06-25T04:43:09.218208,15.55487470,.0004216,97.2973,52.1992,231.0950,128.9929,0,U,61753,999,13880,.68272E-3,.46708E-3,0
HORS 4 (RS82S),2024-199V,2026-06-25T04:43:21.201888,15.60387677,.0004115,97.2918,53.4535,214.7134,145.3855,0,U,61754,999,13889,.79423E-3,.65429E-3,0
SIT-2086,2024-199AF,2026-06-25T04:25:50.005056,15.53597855,.0005535,97.2934,52.6356,213.6035,146.4869,0,U,61764,999,13567,.71537E-3,.45698E-3,0
HYPERVIEW 1G (RS66S),2024-199AP,2026-06-25T04:27:17.796960,15.78003387,.0005663,97.2857,56.3206,190.4984,169.6166,0,U,61772,999,13593,.11676E-2,.201716E-2,0
ALTAIR (RS65S),2024-199AW,2026-06-25T04:25:40.181376,15.37156342,.0010756,97.3028,45.4830,277.6974,82.3049,0,U,61779,999,13834,.38631E-3,.14007E-3,0
ASRTU-1 (AO-123),2024-199AY,2026-06-25T04:18:24.264000,15.35779467,.0011895,97.2999,44.7783,281.2627,78.7280,0,U,61781,999,13515,.25546E-3,.8831E-4,0
SAMSAT-IONOSPHERE (RS75S),2024-199BB,2026-06-25T03:39:30.943872,15.58282985,.0006446,97.2942,52.2301,236.2523,123.8120,0,U,61784,999,13880,.75911E-3,.57726E-3,0
RTU MIREA 1 (RS51S),2024-199BC,2026-06-25T03:48:42.289056,15.61906223,.0006388,97.2929,53.1105,227.4616,132.6104,0,U,61785,999,13571,.83331E-3,.72875E-3,0
TEVEL2-4,2025-052D,2026-06-24T03:48:31.368096,15.34822563,.0004948,97.3899,71.5621,90.1777,270.0033,0,U,63213,999,7118,.50049574E-3,.16841E-3,0
TEVEL2-5,2025-052E,2026-06-23T23:37:30.189216,15.34639902,.00048799,97.3894,71.3335,91.6440,268.5362,0,U,63214,999,7115,.49734829E-3,.16638E-3,0
TEVEL2-6,2025-052F,2026-06-24T04:37:10.201152,15.34612208,.0004712,97.3902,71.5263,91.8606,268.3176,0,U,63215,999,7118,.50550692E-3,.16897E-3,0
TEVEL2-1,2025-052H,2026-06-23T23:06:46.983456,15.34061026,.0004942,97.3870,70.9129,100.4498,259.7302,0,U,63217,999,7113,.46841874E-3,.15378E-3,0
TEVEL2-3,2025-052J,2026-06-23T22:58:42.736512,15.34118051,.00048523,97.3876,70.9298,100.9401,259.2388,0,U,63218,999,7113,.47017444E-3,.15464E-3,0
TEVEL2-2,2025-052K,2026-06-23T23:07:10.660512,15.34070494,.00049675,97.3875,70.9156,100.9332,259.2469,0,U,63219,999,7113,.46675971E-3,.15328E-3,0
TEVEL2-9,2025-052AD,2026-06-24T05:03:31.233888,15.32082358,.00082367,97.3939,70.5233,111.7825,248.4294,0,U,63237,999,7110,.4711308E-3,.14542E-3,0
TEVEL2-7,2025-052AE,2026-06-23T15:57:45.809856,15.31764216,.00082901,97.3941,69.8919,113.4971,246.7143,0,U,63238,999,7101,.40770733E-3,.12446E-3,0
TEVEL2-8,2025-052AF,2026-06-25T04:13:19.945056,15.31804853,.0008412,97.3940,71.3762,110.1773,250.0373,0,U,63239,999,7124,.6424E-3,.19699E-3,0
INNOSAT 16 (RS92S7),2025-155C,2026-06-25T04:50:00.261888,15.25533190,.0011483,97.4562,143.3035,148.7769,211.4153,0,U,64878,999,8189,.25465E-3,.6395E-4,0
GEOSCAN 6 (RS92S6),2025-155D,2026-06-25T03:49:36.798816,15.30285003,.0009257,97.4553,144.7425,138.0907,222.1044,0,U,64879,999,8198,.39281E-3,.1145E-3,0
GEOSCAN 1 (RS92S1),2025-155E,2026-06-25T03:48:37.913760,15.30895034,.0009207,97.4549,144.8967,137.9494,222.2455,0,U,64880,999,8199,.42703E-3,.12694E-3,0
239ALFEROV (RS61S),2025-155F,2026-06-25T04:22:20.434944,15.33135203,.0008922,97.4549,145.5087,135.9059,224.2896,0,U,64881,999,8203,.53388E-3,.1705E-3,0
GEOSCAN 2 (RS92S2),2025-155Q,2026-06-25T03:37:30.349344,15.31164692,.0008878,97.4548,145.0446,126.6098,233.5961,0,U,64890,999,8200,.4117E-3,.12337E-3,0
GEOSCAN 5 (RS92S5),2025-155R,2026-06-25T04:04:09.463008,15.33451530,.0007732,97.4541,145.6366,139.2489,220.9333,0,U,64891,999,8204,.5234E-3,.16876E-3,0
GEOSCAN 4 (RS92S4),2025-155S,2026-06-25T03:40:13.742112,15.33607419,.0007797,97.4545,145.6705,138.8408,221.3424,0,U,64892,999,8204,.49593E-3,.16063E-3,0
GEOSCAN 3 (RS92S3),2025-155T,2026-06-25T05:00:11.445120,15.35639239,.000777,97.4533,146.1796,137.6700,222.5144,0,U,64893,999,8208,.62368E-3,.21585E-3,0
